TKSAT-1 (TUPAC KATARI)  
1 39481U 13075A   26069.12994183 -.00000193  00000+0  00000+0 0  9993
2 39481   0.0439 323.6357 0002955  25.0565 138.6932  1.00272080 44613
EXPRESS-AM5             
1 39487U 13077A   26068.96097170 -.00000278  00000+0  00000+0 0  9996
2 39487   0.0119 226.3906 0002344 102.8372 324.3769  1.00272155 45363
GSAT-14                 
1 39498U 14001A   26069.09050834 -.00000075  00000+0  00000+0 0  9992
2 39498   0.0193 241.3744 0004290  84.1440 308.7811  1.00272163 44388
THAICOM 6               
1 39500U 14002A   26069.16268664 -.00000120  00000+0  00000+0 0  9998
2 39500   0.0373 128.5956 0002251 289.0743 247.2319  1.00272702 44468
TDRS 12                 
1 39504U 14004A   26069.20445052 -.00000267  00000+0  00000+0 0  9999
2 39504   3.8815  17.3485 0003741 269.5654 273.6003  1.00268068 43287
ABS-2                   
1 39508U 14006A   26069.09068169 -.00000084  00000+0  00000+0 0  9999
2 39508   0.0331 263.5913 0002922  86.7606 284.9569  1.00272440 44282
ATHENA-FIDUS            
1 39509U 14006B   26069.15464194  .00000156  00000+0  00000+0 0  9994
2 39509   0.0097 144.5112 0001517 232.4220 244.3437  1.00273679 44090
TURKSAT 4A              
1 39522U 14007A   26068.96086574  .00000148  00000+0  00000+0 0  9991
2 39522   0.0815 284.7315 0004014  30.2729 240.5245  1.00272483 43971
EXPRESS-AT1             
1 39612U 14010A   26069.12316728  .00000000  00000+0  00000+0 0  9998
2 39612   0.0176 166.5172 0000206 275.3909 186.2443  1.00272234 43824
EXPRESS-AT2             
1 39613U 14010B   26068.96097170 -.00000280  00000+0  00000+0 0  9998
2 39613   0.0114 225.8520 0001367  48.1205  19.4501  1.00271724 43507
AMAZONAS 4A             
1 39616U 14011A   26068.98988792 -.00000251  00000+0  00000+0 0  9991
2 39616   0.0650 147.2127 0002334 184.0431 118.7349  1.00269893 43711
ASTRA 5B                
1 39617U 14011B   26069.12405892  .00000139  00000+0  00000+0 0  9998
2 39617   0.0792 304.0933 0003864  30.8241 261.0224  1.00274026 43676
IRNSS-1B                
1 39635U 14017A   26068.06413861  .00000126  00000+0  00000+0 0  9997
2 39635  29.1025 242.1114 0021375 179.4636 183.1932  1.00272626 43792
LUCH-5V                 
1 39727U 14023A   26069.02325473 -.00000266  00000+0  00000+0 0  9990
2 39727   4.8884  70.7176 0003097 291.7679 268.3007  1.00270419 43366
KAZSAT-3                
1 39728U 14023B   26069.15878663  .00000062  00000+0  00000+0 0  9992
2 39728   0.0360  58.5383 0000974  31.5327 193.4164  1.00272716 41462
EUTELSAT 3B             
1 39773U 14030A   26069.14779526  .00000021  00000+0  00000+0 0  9992
2 39773   0.0617 348.4952 0000503 302.7998 292.8085  1.00271759 43076
ASIASAT 8 (AMOS-7)      
1 40107U 14046A   26069.02542140 -.00000331  00000+0  00000+0 0  9994
2 40107   0.0306 256.0529 0001355 115.5647 270.5311  1.00270758101152
ASIASAT 6               
1 40141U 14052A   26069.02802142 -.00000360  00000+0  00000+0 0  9992
2 40141   0.0182 129.9287 0000846 239.5939 288.1655  1.00272403 42087
OPTUS 10                
1 40146U 14054A   26069.18586312 -.00000146  00000+0  00000+0 0  9996
2 40146   0.0940  28.6295 0002019 322.9776  39.1475  1.00271035 42037
MEASAT-3B               
1 40147U 14054B   26069.09397503 -.00000240  00000+0  00000+0 0  9994
2 40147   0.0464   4.1787 0003850  31.5571 257.3606  1.00273778 41916
HIMAWARI-8              
1 40267U 14060A   26068.96114503 -.00000274  00000+0  00000+0 0  9993
2 40267   0.0111 207.7212 0000379 111.5083 335.0872  1.00273369 41760
IRNSS-1C                
1 40269U 14061A   26069.09224169 -.00000159  00000+0  00000+0 0  9993
2 40269   6.2635  90.8571 0019947 356.6903 196.3521  1.00268929 41691
INTELSAT 30 (IS-30)     
1 40271U 14062A   26069.12838183 -.00000149  00000+0  00000+0 0  9997
2 40271   0.0148  98.5386 0001491  11.7586   8.6744  1.00271416  5805
ARSAT 1                 
1 40272U 14062B   26069.13297517 -.00000258  00000+0  00000+0 0  9990
2 40272   0.0277  66.0205 0001468 278.6996 159.1448  1.00271750 41637
EUTELSAT 53A            
1 40277U 14064A   26069.22898692  .00000100  00000+0  00000+0 0  9993
2 40277   0.0122 228.2248 0001551 166.9987 268.1033  1.00272904 40577
GSAT-16                 
1 40332U 14078A   26069.08678167  .00000087  00000+0  00000+0 0  9991
2 40332   0.0154 200.9654 0005297 233.9524 179.1386  1.00272123 41111
DIRECTV 14              
1 40333U 14078B   26069.12751517 -.00000125  00000+0  00000+0 0  9992
2 40333   0.0180 133.4789 0000377  23.6862 317.2999  1.00277235 41050
YAMAL 401               
1 40345U 14082A   26069.02238807 -.00000227  00000+0  00000+0 0  9994
2 40345   0.0068 152.8110 0000259 358.0689 114.7973  1.00274885 40927
ASTRA 2G                
1 40364U 14089A   26069.12405892  .00000152  00000+0  00000+0 0  9999
2 40364   0.0504 330.1560 0004399  64.5687 205.9333  1.00275357 40972
FENGYUN 2G              
1 40367U 14090A   26069.02429475 -.00000301  00000+0  00000+0 0  9993
2 40367   5.3876  74.0167 0001513 142.6618  59.4785  1.00272724 41002
MUOS-3                  
1 40374U 15002A   26069.14406856 -.00000126  00000+0  00000+0 0  9991
2 40374   4.3306  43.0137 0052989 183.8709 337.3188  1.00272899 40592
INMARSAT 5-F2           
1 40384U 15005A   26069.13626852 -.00000284  00000+0  00000+0 0  9999
2 40384   0.0181 145.4509 0000369 111.3599 265.0114  1.00275080 40002
ABS-3A                  
1 40424U 15010A   26069.14658191 -.00000025  00000+0  00000+0 0  9995
2 40424   0.0123 148.0213 0001847 141.6384 287.9463  1.00270240 40388
EUTELSAT 115 WEST B     
1 40425U 15010B   26069.15530748 -.00000023  00000+0  00000+0 0  9992
2 40425   0.0334  16.5840 0000158 313.8673 138.3735  1.00270763 40400
EXPRESS-AM7             
1 40505U 15012A   26069.15507528  .00000152  00000+0  00000+0 0  9995
2 40505   0.0177 153.8331 0002992 183.6024 286.1946  1.00271177 40018
BEIDOU-3S IGSO-1S       
1 40549U 15019A   26068.59571414 -.00000156  00000+0  00000+0 0  9997
2 40549  49.3802 296.6610 0035581 190.7427 350.7846  1.00273346 40072
THOR 7                  
1 40613U 15022A   26069.14701525 -.00000007  00000+0  00000+0 0  9998
2 40613   0.0094 144.5456 0002612 212.9296 222.5959  1.00272799 39823
TURKMENALEM52E/MONACOSAT
1 40617U 15023A   26069.15741530  .00000106  00000+0  00000+0 0  9993
2 40617   0.0215 107.9247 0002940 250.5470 278.0259  1.00271333 39854
DIRECTV 15              
1 40663U 15026A   26069.14350509 -.00000101  00000+0  00000+0 0  9994
2 40663   0.0192 107.2157 0000544  85.9088 283.4707  1.00271942 39477
SKY MEXICO-1            
1 40664U 15026B   26069.13158852 -.00000233  00000+0  00000+0 0  9997
2 40664   0.0251 252.6012 0002221 121.5898 122.1721  1.00271378 39466
METEOSAT-11 (MSG-4)     
1 40732U 15034A   26069.14900860  .00000063  00000+0  00000+0 0  9997
2 40732   2.9523  71.6466 0001818 271.3306 247.7759  1.00267912  6228
STAR ONE C4             
1 40733U 15034B   26069.06199490 -.00000263  00000+0  00000+0 0  9991
2 40733   0.0374 342.1020 0002846  25.6983 112.2457  1.00272242 39024
WGS F7 (USA 263)        
1 40746U 15036A   26068.82529517  .00000019  00000+0  00000+0 0  9995
2 40746   0.0128 125.3208 0000194 307.5482 206.7510  1.00270152 38873
INTELSAT 34 (IS-34)     
1 40874U 15039A   26069.06485490 -.00000284  00000+0  00000+0 0  9993
2 40874   0.0292 272.3260 0000036  76.2405 147.0258  1.00275863 38632
EUTELSAT 8 WEST B       
1 40875U 15039B   26069.14554191 -.00000064  00000+0  00000+0 0  9994
2 40875   0.0686 343.3202 0003842   5.5172 223.3655  1.00272294 38666
GSAT-6                  
1 40880U 15041A   26069.09224169 -.00000159  00000+0  00000+0 0  9991
2 40880   1.6627  83.8842 0002847 270.5673 289.0218  1.00273979 38603
INMARSAT 5-F3           
1 40882U 15042A   26068.75483485  .00000051  00000+0  00000+0 0  9994
2 40882   0.0187 148.5711 0001300 268.5689 201.6181  1.00267725 38577
MUOS-4                  
1 40887U 15044A   26069.09059501 -.00000090  00000+0  00000+0 0  9991
2 40887   4.1438  41.5566 0058646 358.6413 235.1370  1.00272120 38563
TJS-1                   
1 40892U 15046A   26069.18586312 -.00000155  00000+0  00000+0 0  9996
2 40892   0.0675  84.3487 0004671 302.5424   2.8905  1.00270920 38573
EXPRESS-AM8             
1 40895U 15048A   26069.28705383 -.00000110  00000+0  00000+0 0  9994
2 40895   0.0233 248.9685 0000105 142.6966 225.6212  1.00272488 38359
SKY MUSTER 1 (NBN1A)    
1 40940U 15054A   26068.96105836 -.00000277  00000+0  00000+0 0  9997
2 40940   0.0110 222.4825 0001796 133.3534 298.0174  1.00271921 38264
ARSAT 2                 
1 40941U 15054B   26069.12556310 -.00000223  00000+0  00000+0 0  9995
2 40941   0.0255  72.1071 0001969 274.4877 145.3938  1.00271750 38315
MORELOS 3               
1 40946U 15056A   26069.12474183 -.00000040  00000+0  00000+0 0  9996
2 40946   3.1129  12.2660 0003062   1.3462  85.9769  1.00272475 38299
APSTAR-9                
1 40982U 15059A   26069.17516669 -.00000265  00000+0  00000+0 0  9999
2 40982   0.0409 343.0364 0001410 274.7937 115.0517  1.00269702 38127
TURKSAT 4B              
1 40984U 15060A   26069.08574167  .00000116  00000+0  00000+0 0  9994
2 40984   0.0182 133.9975 0002213 220.0556 254.5427  1.00273839 38107
ZHONGXING-2C            
1 41021U 15063A   26069.09640171 -.00000322  00000+0  00000+0 0  9990
2 41021   0.0222 154.5354 0006671  68.4479  82.9455  1.00271475 37988
GSAT-15                 
1 41028U 15065A   26069.09440836 -.00000256  00000+0  00000+0 0  9991
2 41028   0.0757 269.3826 0001456 118.3794 267.4831  1.00273398 37803
BADR-7 (ARABSAT-6B)     
1 41029U 15065B   26069.15230194  .00000147  00000+0  00000+0 0  9991
2 41029   0.0434 233.8313 0002839  27.8227 346.9996  1.00275542 37778
LAOSAT 1                
1 41034U 15067A   26068.99419830 -.00000341  00000+0  00000+0 0  9993
2 41034   0.0150 104.4060 0001544 218.4972 331.1780  1.00270870 37864
